{"type": "FeatureCollection", "features": [ {"type": "Feature", "properties": {"norad_id": 43437, "name": "SENTINEL-3B", "group": "resource", "lat": -80.35924992101484, "lon": 178.09765085763345, "alt_km": 811.1422467292396, "timestamp": "2025-12-22T08:58:20.000968+00:00", "meta": {"OBJECT_NAME": "SENTINEL-3B", "OBJECT_ID": "2018-039A", "EPOCH": "2025-12-22T02:40:53.006304", "MEAN_MOTION": 14.26737543, "ECCENTRICITY": 0.0001619, "INCLINATION": 98.6254, "RA_OF_ASC_NODE": 61.1622, "ARG_OF_PERICENTER": 92.471, "MEAN_ANOMALY": 267.6656, "EPHEMERIS_TYPE": 0, "CLASSIFICATION_TYPE": "U", "NORAD_CAT_ID": 43437, "ELEMENT_SET_NO": 999, "REV_AT_EPOCH": 39887, "BSTAR": 7.7397e-05, "MEAN_MOTION_DOT": 1.44e-06, "MEAN_MOTION_DDOT": 0}, "tle": {"line1": "1 43437U 18039A   25356.11172461  .00000144  00000+0  77397-4 0  9991", "line2": "2 43437  98.6254  61.1622 0001619  92.4710 267.6656 14.26737543398870"}}, "geometry": {"type": "Point", "coordinates": [178.09765085763345, -80.35924992101484]}}, {"type": "Feature", "properties": {"norad_id": 43461, "name": "GAOFEN-5 01", "group": "resource", "lat": -18.77135300870919, "lon": -37.59957791905404, "alt_km": 696.7392043331356, "timestamp": "2025-12-22T08:58:20.000978+00:00", "meta": {"OBJECT_NAME": "GAOFEN-5 01", "OBJECT_ID": "2018-043A", "EPOCH": "2025-12-21T21:32:55.022784", "MEAN_MOTION": 14.60419431, "ECCENTRICITY": 5.13e-05, "INCLINATION": 98.434, "RA_OF_ASC_NODE": 319.0256, "ARG_OF_PERICENTER": 275.9177, "MEAN_ANOMALY": 84.1964, "EPHEMERIS_TYPE": 0, "CLASSIFICATION_TYPE": "U", "NORAD_CAT_ID": 43461, "ELEMENT_SET_NO": 999, "REV_AT_EPOCH": 40581, "BSTAR": 0.00010047, "MEAN_MOTION_DOT": 4.38e-06, "MEAN_MOTION_DDOT": 0}, "tle": {"line1": "1 43461U 18043A   25355.89785906  .00000438  00000+0  10047-3 0  9995", "line2": "2 43461  98.4340 319.0256 0000513 275.9177  84.1964 14.60419431405814"}}, "geometry": {"type": "Point", "coordinates": [-37.59957791905404, -18.77135300870919]}}, {"type": "Feature", "properties": {"norad_id": 43484, "name": "GAOFEN-6", "group": "resource", "lat": 3.995488337458255, "lon": -119.13405453921287, "alt_km": 649.527762984002, "timestamp": "2025-12-22T08:58:20.000989+00:00", "meta": {"OBJECT_NAME": "GAOFEN-6", "OBJECT_ID": "2018-048A", "EPOCH": "2025-12-22T04:55:35.092992", "MEAN_MOTION": 14.76580531, "ECCENTRICITY": 0.0012727, "INCLINATION": 97.8024, "RA_OF_ASC_NODE": 60.1543, "ARG_OF_PERICENTER": 35.7176, "MEAN_ANOMALY": 324.4884, "EPHEMERIS_TYPE": 0, "CLASSIFICATION_TYPE": "U", "NORAD_CAT_ID": 43484, "ELEMENT_SET_NO": 999, "REV_AT_EPOCH": 40727, "BSTAR": 6.8348e-05, "MEAN_MOTION_DOT": 4.28e-06, "MEAN_MOTION_DDOT": 0}, "tle": {"line1": "1 43484U 18048A   25356.20526728  .00000428  00000+0  68348-4 0  9993", "line2": "2 43484  97.8024  60.1543 0012727  35.7176 324.4884 14.76580531407275"}}, "geometry": {"type": "Point", "coordinates": [-119.13405453921287, 3.995488337458255]}}, {"type": "Feature", "properties": {"norad_id": 43585, "name": "GAOFEN-11 01", "group": "resource", "lat": -17.701608520627563, "lon": 61.527082401017466, "alt_km": 422.8447000886199, "timestamp": "2025-12-22T08:58:20.000999+00:00", "meta": {"OBJECT_NAME": "GAOFEN-11 01", "OBJECT_ID": "2018-063A", "EPOCH": "2025-12-22T04:23:57.367104", "MEAN_MOTION": 15.49474567, "ECCENTRICITY": 0.000392, "INCLINATION": 97.155, "RA_OF_ASC_NODE": 59.0402, "ARG_OF_PERICENTER": 263.9526, "MEAN_ANOMALY": 96.1279, "EPHEMERIS_TYPE": 0, "CLASSIFICATION_TYPE": "U", "NORAD_CAT_ID": 43585, "ELEMENT_SET_NO": 999, "REV_AT_EPOCH": 41288, "BSTAR": 0.00036052, "MEAN_MOTION_DOT": 0.0001977, "MEAN_MOTION_DDOT": 0}, "tle": {"line1": "1 43585U 18063A   25356.18330286  .00019770  00000+0  36052-3 0  9997", "line2": "2 43585  97.1550  59.0402 0003920 263.9526  96.1279 15.49474567412880"}}, "geometry": {"type": "Point", "coordinates": [61.527082401017466, -17.701608520627563]}}, {"type": "Feature", "properties": {"norad_id": 43613, "name": "ICESAT-2", "group": "resource", "lat": 65.67522227160585, "lon": -121.10581584614542, "alt_km": 473.4534446063444, "timestamp": "2025-12-22T08:58:20.001009+00:00", "meta": {"OBJECT_NAME": "ICESAT-2", "OBJECT_ID": "2018-070A", "EPOCH": "2025-12-22T02:23:58.405056", "MEAN_MOTION": 15.28268178, "ECCENTRICITY": 0.0003029, "INCLINATION": 92.0042, "RA_OF_ASC_NODE": 243.2634, "ARG_OF_PERICENTER": 120.3952, "MEAN_ANOMALY": 239.7597, "EPHEMERIS_TYPE": 0, "CLASSIFICATION_TYPE": "U", "NORAD_CAT_ID": 43613, "ELEMENT_SET_NO": 999, "REV_AT_EPOCH": 40541, "BSTAR": 0.00050274, "MEAN_MOTION_DOT": 0.00013848, "MEAN_MOTION_DDOT": 0}, "tle": {"line1": "1 43613U 18070A   25356.09998154  .00013848  00000+0  50274-3 0  9993", "line2": "2 43613  92.0042 243.2634 0003029 120.3952 239.7597 15.28268178405410"}}, "geometry": {"type": "Point", "coordinates": [-121.10581584614542, 65.67522227160585]}}, {"type": "Feature", "properties": {"norad_id": 43719, "name": "HYSIS", "group": "resource", "lat": -74.45862065919813, "lon": 89.71997707150389, "alt_km": 641.2694077335282, "timestamp": "2025-12-22T08:58:20.001019+00:00", "meta": {"OBJECT_NAME": "HYSIS", "OBJECT_ID": "2018-096A", "EPOCH": "2025-12-22T04:26:46.217760", "MEAN_MOTION": 14.78666253, "ECCENTRICITY": 9.47e-05, "INCLINATION": 98.0089, "RA_OF_ASC_NODE": 59.1169, "ARG_OF_PERICENTER": 52.7179, "MEAN_ANOMALY": 307.4119, "EPHEMERIS_TYPE": 0, "CLASSIFICATION_TYPE": "U", "NORAD_CAT_ID": 43719, "ELEMENT_SET_NO": 999, "REV_AT_EPOCH": 38126, "BSTAR": 4.941e-05, "MEAN_MOTION_DOT": 3.1e-06, "MEAN_MOTION_DDOT": 0}, "tle": {"line1": "1 43719U 18096A   25356.18525715  .00000310  00000+0  49410-4 0  9998", "line2": "2 43719  98.0089  59.1169 0000947  52.7179 307.4119 14.78666253381265"}}, "geometry": {"type": "Point", "coordinates": [89.71997707150389, -74.45862065919813]}}, {"type": "Feature", "properties": {"norad_id": 43783, "name": "KAZSTSAT", "group": "resource", "lat": 23.5781006598511, "lon": -145.58100100376927, "alt_km": 571.2277436485638, "timestamp": "2025-12-22T08:58:20.001030+00:00", "meta": {"OBJECT_NAME": "KAZSTSAT", "OBJECT_ID": "2018-099AB", "EPOCH": "2025-12-21T01:50:44.888352", "MEAN_MOTION": 14.99364891, "ECCENTRICITY": 0.00060238, "INCLINATION": 97.4527, "RA_OF_ASC_NODE": 29.903, "ARG_OF_PERICENTER": 292.687, "MEAN_ANOMALY": 67.3717, "EPHEMERIS_TYPE": 0, "CLASSIFICATION_TYPE": "U", "NORAD_CAT_ID": 43783, "ELEMENT_SET_NO": 999, "REV_AT_EPOCH": 38461, "BSTAR": 1.8043656e-05, "MEAN_MOTION_DOT": 1.65e-06, "MEAN_MOTION_DDOT": 0}, "tle": {"line1": "1 43783U 18099AB  25355.07690843  .00000165  00000+0  18044-4 0  9991", "line2": "2 43783  97.4527  29.9030 0006023 292.6870  67.3717 14.99364891384616"}}, "geometry": {"type": "Point", "coordinates": [-145.58100100376927, 23.5781006598511]}}, {"type": "Feature", "properties": {"norad_id": 43831, "name": "SAUDISAT 5A", "group": "resource", "lat": 40.91885140461668, "lon": 49.96945317033348, "alt_km": 477.59108315680623, "timestamp": "2025-12-22T08:58:20.001040+00:00", "meta": {"OBJECT_NAME": "SAUDISAT 5A", "OBJECT_ID": "2018-102A", "EPOCH": "2025-12-22T04:04:12.252864", "MEAN_MOTION": 15.25765764, "ECCENTRICITY": 0.0011274, "INCLINATION": 97.3337, "RA_OF_ASC_NODE": 56.1788, "ARG_OF_PERICENTER": 47.0778, "MEAN_ANOMALY": 313.1404, "EPHEMERIS_TYPE": 0, "CLASSIFICATION_TYPE": "U", "NORAD_CAT_ID": 43831, "ELEMENT_SET_NO": 999, "REV_AT_EPOCH": 38866, "BSTAR": 0.00026158, "MEAN_MOTION_DOT": 6.619e-05, "MEAN_MOTION_DDOT": 0}, "tle": {"line1": "1 43831U 18102A   25356.16958626  .00006619  00000+0  26158-3 0  9991", "line2": "2 43831  97.3337  56.1788 0011274  47.0778 313.1404 15.25765764388661"}}, "geometry": {"type": "Point", "coordinates": [49.96945317033348, 40.91885140461668]}}, {"type": "Feature", "properties": {"norad_id": 43833, "name": "SAUDISAT 5B", "group": "resource", "lat": 72.48125203561405, "lon": -96.75143818447617, "alt_km": 476.0387583981501, "timestamp": "2025-12-22T08:58:20.001050+00:00", "meta": {"OBJECT_NAME": "SAUDISAT 5B", "OBJECT_ID": "2018-102C", "EPOCH": "2025-12-22T05:21:48.514752", "MEAN_MOTION": 15.26114458, "ECCENTRICITY": 0.0012015, "INCLINATION": 97.3433, "RA_OF_ASC_NODE": 58.9872, "ARG_OF_PERICENTER": 49.0308, "MEAN_ANOMALY": 311.1968, "EPHEMERIS_TYPE": 0, "CLASSIFICATION_TYPE": "U", "NORAD_CAT_ID": 43833, "ELEMENT_SET_NO": 999, "REV_AT_EPOCH": 38878, "BSTAR": 0.00024846, "MEAN_MOTION_DOT": 6.351e-05, "MEAN_MOTION_DDOT": 0}, "tle": {"line1": "1 43833U 18102C   25356.22347818  .00006351  00000+0  24846-3 0  9990", "line2": "2 43833  97.3433  58.9872 0012015  49.0308 311.1968 15.26114458388784"}}, "geometry": {"type": "Point", "coordinates": [-96.75143818447617, 72.48125203561405]}}, {"type": "Feature", "properties": {"norad_id": 44622, "name": "GAOFEN-10R", "group": "resource", "lat": -8.535212981765545, "lon": -54.86790243939338, "alt_km": 619.8032741508478, "timestamp": "2025-12-22T08:58:20.001061+00:00", "meta": {"OBJECT_NAME": "GAOFEN-10R", "OBJECT_ID": "2019-066A", "EPOCH": "2025-12-22T04:09:08.611776", "MEAN_MOTION": 14.82822516, "ECCENTRICITY": 0.0007227, "INCLINATION": 98.0291, "RA_OF_ASC_NODE": 303.7166, "ARG_OF_PERICENTER": 14.2938, "MEAN_ANOMALY": 345.8479, "EPHEMERIS_TYPE": 0, "CLASSIFICATION_TYPE": "U", "NORAD_CAT_ID": 44622, "ELEMENT_SET_NO": 999, "REV_AT_EPOCH": 33614, "BSTAR": 0.00018869, "MEAN_MOTION_DOT": 1.473e-05, "MEAN_MOTION_DDOT": 0}, "tle": {"line1": "1 44622U 19066A   25356.17301634  .00001473  00000+0  18869-3 0  9995", "line2": "2 44622  98.0291 303.7166 0007227  14.2938 345.8479 14.82822516336146"}}, "geometry": {"type": "Point", "coordinates": [-54.86790243939338, -8.535212981765545]}}]}